NORAD_CAT_ID,OBJECT_NAME,OBJECT_TYPE,EPOCH,MEAN_MOTION,ECCENTRICITY,INCLINATION,RA_OF_ASC_NODE,ARG_OF_PERICENTER,MEAN_ANOMALY,BSTAR,MEAN_MOTION_DOT,MEAN_MOTION_DDOT,TLE_LINE0,TLE_LINE1,TLE_LINE2,SEMIMAJOR_AXIS,PERIOD,APOGEE,PERIGEE,DECAYED
51768.0,STARLINK-3622,PAYLOAD,2023-10-04 17:34:49,15.0888036,0.0001387,53.2179,0.8272,99.11,261.0049,0.0026571,0.00042301,0.0,0 STARLINK-3622,1 51768U 22017A   23277.73251582  .00042301  00000-0  26571-2 0  9996,2 51768  53.2179   0.8272 0001387  99.1100 261.0049 15.08880360 90149,6917.757,95.435,540.582,538.663,0.0
51768.0,STARLINK-3622,PAYLOAD,2023-10-05 11:04:04,15.08842691,0.000153,53.2186,357.5554,93.7534,266.3633,0.0012623,0.0001986,0.0,0 STARLINK-3622,1 51768U 22017A   23278.46116279  .00019860  00000-0  12623-2 0  9997,2 51768  53.2186 357.5554 0001530  93.7534 266.3633 15.08842691 90268,6917.872,95.437,540.796,538.679,0.0
51768.0,STARLINK-3622,PAYLOAD,2023-10-05 12:39:27,15.08848633,0.0001398,53.2181,357.2596,85.6268,274.4884,0.0019209,0.00030423,0.0,0 STARLINK-3622,1 51768U 22017A   23278.52740324  .00030423  00000-0  19209-2 0  9993,2 51768  53.2181 357.2596 0001398  85.6268 274.4884 15.08848633 90262,6917.854,95.437,540.686,538.752,0.0
51768.0,STARLINK-3622,PAYLOAD,2023-10-05 15:50:13,15.08858653,0.0001409,53.2181,356.6643,81.8389,278.2763,0.0022136,0.00035135,0.0,0 STARLINK-3622,1 51768U 22017A   23278.65988224  .00035135  00000-0  22136-2 0  9998,2 51768  53.2181 356.6643 0001409  81.8389 278.2763 15.08858653 90286,6917.823,95.436,540.663,538.714,0.0
51768.0,STARLINK-3622,PAYLOAD,2023-10-06 04:33:19,15.08839663,0.0001456,53.2172,354.2854,88.7965,271.3194,0.0015688,0.00024767,0.0,0 STARLINK-3622,1 51768U 22017A   23279.18980925  .00024767  00000-0  15688-2 0  9990,2 51768  53.2172 354.2854 0001456  88.7965 271.3194 15.08839663 90374,6917.881,95.438,540.754,538.739,0.0
51768.0,STARLINK-3622,PAYLOAD,2023-10-06 12:30:15,15.08850738,0.0001444,53.2174,352.7979,88.4284,271.6874,0.0019043,0.00030158,0.0,0 STARLINK-3622,1 51768U 22017A   23279.52100986  .00030158  00000-0  19043-2 0  9999,2 51768  53.2174 352.7979 0001444  88.4284 271.6874 15.08850738 90414,6917.848,95.437,540.712,538.714,0.0
51768.0,STARLINK-3622,PAYLOAD,2023-10-06 22:02:34,15.08848513,0.0001386,53.2175,351.0139,100.6346,259.4802,0.0013143,0.00020696,0.0,0 STARLINK-3622,1 51768U 22017A   23279.91845016  .00020696  00000-0  13143-2 0  9993,2 51768  53.2175 351.0139 0001386 100.6346 259.4802 15.08848513 90475,6917.854,95.437,540.678,538.761,0.0
51768.0,STARLINK-3622,PAYLOAD,2023-10-07 10:45:39,15.0885031,0.0001559,53.2173,348.6353,96.8664,263.2505,0.00091745,0.00014347,0.0,0 STARLINK-3622,1 51768U 22017A   23280.44836964  .00014347  00000-0  91745-3 0  9996,2 51768  53.2173 348.6353 0001559  96.8664 263.2505 15.08850310 90565,6917.849,95.437,540.792,538.635,0.0
51768.0,STARLINK-3622,PAYLOAD,2023-10-07 12:21:02,15.08853015,0.0001567,53.2176,348.3384,96.7505,263.3665,0.00073879,0.00011494,0.0,0 STARLINK-3622,1 51768U 22017A   23280.51460884  .00011494  00000-0  73879-3 0  9996,2 51768  53.2176 348.3384 0001567  96.7505 263.3665 15.08853015 90564,6917.841,95.437,540.79,538.622,0.0
51768.0,STARLINK-3622,PAYLOAD,2023-10-07 21:53:21,15.08846149,0.0001791,53.2173,346.5537,81.7056,278.4139,0.00048722,7.476e-05,0.0,0 STARLINK-3622,1 51768U 22017A   23280.91205156  .00007476  00000-0  48722-3 0  9993,2 51768  53.2173 346.5537 0001791  81.7056 278.4139 15.08846149 90625,6917.862,95.437,540.966,538.488,0.0
51768.0,STARLINK-3622,PAYLOAD,2023-10-08 10:36:26,15.08841298,0.0001991,53.218,344.1744,85.6609,274.461,0.00036085,5.46e-05,0.0,0 STARLINK-3622,1 51768U 22017A   23281.44197417  .00005460  00000-0  36085-3 0  9992,2 51768  53.2180 344.1744 0001991  85.6609 274.4610 15.08841298 90716,6917.876,95.437,541.119,538.364,0.0
51768.0,STARLINK-3622,PAYLOAD,2023-10-09 13:37:59,15.08853082,0.0001767,53.2181,339.1164,101.7446,258.3744,0.00043747,6.684e-05,0.0,0 STARLINK-3622,1 51768U 22017A   23282.56804892  .00006684  00000-0  43747-3 0  9990,2 51768  53.2181 339.1164 0001767 101.7446 258.3744 15.08853082 90877,6917.84,95.437,540.928,538.483,0.0
51768.0,STARLINK-3622,PAYLOAD,2023-10-09 15:13:22,15.0886099,0.0001687,53.2177,338.8203,97.9191,262.1993,0.00062787,9.724e-05,0.0,0 STARLINK-3622,1 51768U 22017A   23282.63428639  .00009724  00000-0  62787-3 0  9992,2 51768  53.2177 338.8203 0001687  97.9191 262.1993 15.08860990 90893,6917.816,95.436,540.848,538.514,0.0
51768.0,STARLINK-3622,PAYLOAD,2023-10-10 10:18:00,15.08854571,0.0001705,53.2175,335.2533,96.5685,263.5502,0.00054104,8.337e-05,0.0,0 STARLINK-3622,1 51768U 22017A   23283.42916796  .00008337  00000-0  54104-3 0  9999,2 51768  53.2175 335.2533 0001705  96.5685 263.5502 15.08854571 91016,6917.836,95.437,540.88,538.521,0.0
51768.0,STARLINK-3622,PAYLOAD,2023-10-10 13:28:46,15.08859937,0.0001722,53.2172,334.6584,98.1804,261.9384,0.00058235,8.997e-05,0.0,0 STARLINK-3622,1 51768U 22017A   23283.56164549  .00008997  00000-0  58235-3 0  9996,2 51768  53.2172 334.6584 0001722  98.1804 261.9384 15.08859937 91024,6917.819,95.436,540.876,538.493,0.0
51768.0,STARLINK-3622,PAYLOAD,2023-10-10 15:04:09,15.08865297,0.0001699,53.2174,334.3614,97.8075,262.311,0.00090729,0.00014191,0.0,0 STARLINK-3622,1 51768U 22017A   23283.62788402  .00014191  00000-0  90729-3 0  9990,2 51768  53.2174 334.3614 0001699  97.8075 262.3110 15.08865297 91035,6917.803,95.436,540.843,538.493,0.0
51768.0,STARLINK-3622,PAYLOAD,2023-10-11 05:22:38,15.08824946,0.0001404,53.219,331.6854,102.1262,257.9888,5.4755e-05,5.83e-06,0.0,0 STARLINK-3622,1 51768U 22017A   23284.22405485  .00000583  00000-0  54755-4 0  9994,2 51768  53.2190 331.6854 0001404 102.1262 257.9888 15.08824946 91130,6917.926,95.439,540.763,538.82,0.0
51768.0,STARLINK-3622,PAYLOAD,2023-10-11 13:19:34,15.08835665,0.0001684,53.217,330.1996,78.4711,281.647,0.0014187,0.0002236,0.0,0 STARLINK-3622,1 51768U 22017A   23284.55525843  .00022360  00000-0  14187-2 0  9991,2 51768  53.2170 330.1996 0001684  78.4711 281.6470 15.08835665 91178,6917.894,95.438,540.924,538.594,0.0
51768.0,STARLINK-3622,PAYLOAD,2023-10-12 03:38:02,15.08844999,0.0001724,53.2164,327.5229,81.1697,278.9491,0.000935,0.00014626,0.0,0 STARLINK-3622,1 51768U 22017A   23285.15142014  .00014626  00000-0  93500-3 0  9996,2 51768  53.2164 327.5229 0001724  81.1697 278.9491 15.08844999 91272,6917.865,95.437,540.923,538.537,0.0
51768.0,STARLINK-3622,PAYLOAD,2023-10-12 13:10:21,15.08863393,0.0001698,53.2166,325.7391,82.5713,277.5472,0.0011513,0.00018094,0.0,0 STARLINK-3622,1 51768U 22017A   23285.54885503  .00018094  00000-0  11513-2 0  9992,2 51768  53.2166 325.7391 0001698  82.5713 277.5472 15.08863393 91327,6917.809,95.436,540.849,538.499,0.0
51768.0,STARLINK-3622,PAYLOAD,2023-10-12 19:31:53,15.0885524,0.0001454,53.2171,324.5504,85.9753,274.1405,0.00074745,0.00011633,0.0,0 STARLINK-3622,1 51768U 22017A   23285.81381554  .00011633  00000-0  74745-3 0  9998,2 51768  53.2171 324.5504 0001454  85.9753 274.1405 15.08855240 91362,6917.834,95.437,540.705,538.693,0.0
51768.0,STARLINK-3622,PAYLOAD,2023-10-13 11:25:44,15.08857067,0.0001786,53.2164,321.5771,96.8216,263.2979,0.00074285,0.0001156,0.0,0 STARLINK-3622,1 51768U 22017A   23286.47621405  .00011560  00000-0  74285-3 0  9991,2 51768  53.2164 321.5771 0001786  96.8216 263.2979 15.08857067 91476,6917.828,95.436,540.929,538.458,0.0
51768.0,STARLINK-3622,PAYLOAD,2023-10-13 19:22:40,15.08854206,0.0001417,53.2159,320.088,88.573,271.5425,0.00070338,0.00010928,0.0,0 STARLINK-3622,1 51768U 22017A   23286.80741291  .00010928  00000-0  70338-3 0  9996,2 51768  53.2159 320.0880 0001417  88.5730 271.5425 15.08854206 91521,6917.837,95.437,540.682,538.722,0.0
51768.0,STARLINK-3622,PAYLOAD,2023-10-14 09:41:08,15.08855198,0.0001706,53.2155,317.4133,86.8462,273.2725,0.0015494,0.00024467,0.0,0 STARLINK-3622,1 51768U 22017A   23287.40357395  .00024467  00000-0  15494-2 0  9995,2 51768  53.2155 317.4133 0001706  86.8462 273.2725 15.08855198 91615,6917.834,95.437,540.879,538.519,0.0
51768.0,STARLINK-3622,PAYLOAD,2023-10-15 01:35:00,15.08833503,0.0001932,53.2157,314.4408,91.4142,268.7071,0.0006937,0.00010768,0.0,0 STARLINK-3622,1 51768U 22017A   23288.06598158  .00010768  00000-0  69370-3 0  9994,2 51768  53.2157 314.4408 0001932  91.4142 268.7071 15.08833503 91717,6917.9,95.438,541.102,538.429,0.0
51768.0,STARLINK-3622,PAYLOAD,2023-10-15 09:31:56,15.08824448,0.0001604,53.2159,312.9514,98.2017,261.9157,-5.4625e-05,-1.157e-05,0.0,0 STARLINK-3622,1 51768U 22017A   23288.39718562 -.00001157  00000-0 -54625-4 0  9995,2 51768  53.2159 312.9514 0001604  98.2017 261.9157 15.08824448 91765,6917.928,95.439,540.903,538.683,0.0
51768.0,STARLINK-3622,PAYLOAD,2023-10-15 19:04:15,15.08833021,0.000155,53.2166,311.1666,98.4917,261.6251,7.6908e-05,9.36e-06,0.0,0 STARLINK-3622,1 51768U 22017A   23288.79462751  .00000936  00000-0  76908-4 0  9995,2 51768  53.2166 311.1666 0001550  98.4917 261.6251 15.08833021 91818,6917.902,95.438,540.839,538.694,0.0
51768.0,STARLINK-3622,PAYLOAD,2023-10-16 07:47:20,15.08848113,0.0001416,53.2168,308.7878,93.6926,266.4228,0.00046878,7.182e-05,0.0,0 STARLINK-3622,1 51768U 22017A   23289.32454515  .00007182  00000-0  46878-3 0  9996,2 51768  53.2168 308.7878 0001416  93.6926 266.4228 15.08848113 91900,6917.856,95.437,540.7,538.741,0.0
51768.0,STARLINK-3622,PAYLOAD,2023-10-17 10:48:53,15.08851238,0.0001627,53.2163,303.7315,99.0463,261.0713,0.00032827,4.942e-05,0.0,0 STARLINK-3622,1 51768U 22017A   23290.45062180  .00004942  00000-0  32827-3 0  9995,2 51768  53.2163 303.7315 0001627  99.0463 261.0713 15.08851238 92077,6917.846,95.437,540.837,538.586,0.0
51768.0,STARLINK-3622,PAYLOAD,2023-10-18 10:39:41,15.08839918,0.000173,53.2164,299.269,104.7026,255.4158,-5.6066e-05,-1.18e-05,0.0,0 STARLINK-3622,1 51768U 22017A   23291.44422490 -.00001180  00000-0 -56066-4 0  9994,2 51768  53.2164 299.2690 0001730 104.7026 255.4158 15.08839918 92225,6917.881,95.438,540.942,538.549,0.0
